{
  "type": "FeatureCollection",
  "features": [
    {
      "type": "Feature",
      "properties": {
        "norad_id": 66961,
        "name": "STARLINK-35761",
        "group": "last-30-days",
        "lat": 6.08542525661416,
        "lon": -95.94203601735732,
        "alt_km": 371.4335506661582,
        "timestamp": "2025-12-25T07:00:32.765946+00:00",
        "meta_object_name": "STARLINK-35761",
        "meta_object_id": "2025-288C",
        "meta_epoch": "2025-12-24T22:00:03.000096",
        "meta_mean_motion": 15.67068665,
        "meta_eccentricity": 0.0001215,
        "meta_inclination": 43.0006,
        "meta_ra_of_asc_node": 92.8754,
        "meta_arg_of_pericenter": 271.2934,
        "meta_mean_anomaly": 300.7862,
        "meta_ephemeris_type": 0,
        "meta_classification_type": "U",
        "meta_norad_cat_id": 66961,
        "meta_element_set_no": 999,
        "meta_rev_at_epoch": 378,
        "meta_bstar": -0.021142036,
        "meta_mean_motion_dot": -0.02038202,
        "meta_mean_motion_ddot": 0,
        "tle_line1": "1 66961U 25288C   25358.91670139 -.02038202  00000+0 -21142-1 0  9991",
        "tle_line2": "2 66961  43.0006  92.8754 0001215 271.2934 300.7862 15.67068665  3789"
      },
      "geometry": {
        "type": "Point",
        "coordinates": [
          -95.94203601735732,
          6.08542525661416
        ]
      }
    },
    {
      "type": "Feature",
      "properties": {
        "norad_id": 66962,
        "name": "STARLINK-35874",
        "group": "last-30-days",
        "lat": 4.785418890743535,
        "lon": -94.53178841340997,
        "alt_km": 371.5901917805386,
        "timestamp": "2025-12-25T07:00:32.765958+00:00",
        "meta_object_name": "STARLINK-35874",
        "meta_object_id": "2025-288D",
        "meta_epoch": "2025-12-24T22:00:03.000096",
        "meta_mean_motion": 15.67070604,
        "meta_eccentricity": 0.00012501,
        "meta_inclination": 43.0004,
        "meta_ra_of_asc_node": 92.8705,
        "meta_arg_of_pericenter": 271.6389,
        "meta_mean_anomaly": 302.3554,
        "meta_ephemeris_type": 0,
        "meta_classification_type": "U",
        "meta_norad_cat_id": 66962,
        "meta_element_set_no": 999,
        "meta_rev_at_epoch": 378,
        "meta_bstar": -0.021150296,
        "meta_mean_motion_dot": -0.0203907,
        "meta_mean_motion_ddot": 0,
        "tle_line1": "1 66962U 25288D   25358.91670139 -.02039070  00000+0 -21150-1 0  9995",
        "tle_line2": "2 66962  43.0004  92.8705 0001250 271.6389 302.3554 15.67070604  3783"
      },
      "geometry": {
        "type": "Point",
        "coordinates": [
          -94.53178841340997,
          4.785418890743535
        ]
      }
    },
    {
      "type": "Feature",
      "properties": {
        "norad_id": 66963,
        "name": "STARLINK-36133",
        "group": "last-30-days",
        "lat": 3.4821683728353428,
        "lon": -93.12621053881834,
        "alt_km": 371.75119135014575,
        "timestamp": "2025-12-25T07:00:32.765971+00:00",
        "meta_object_name": "STARLINK-36133",
        "meta_object_id": "2025-288E",
        "meta_epoch": "2025-12-24T22:00:03.000096",
        "meta_mean_motion": 15.67072127,
        "meta_eccentricity": 0.00012922,
        "meta_inclination": 43.0002,
        "meta_ra_of_asc_node": 92.8659,
        "meta_arg_of_pericenter": 271.9561,
        "meta_mean_anomaly": 303.9558,
        "meta_ephemeris_type": 0,
        "meta_classification_type": "U",
        "meta_norad_cat_id": 66963,
        "meta_element_set_no": 999,
        "meta_rev_at_epoch": 378,
        "meta_bstar": -0.021188543,
        "meta_mean_motion_dot": -0.02042445,
        "meta_mean_motion_ddot": 0,
        "tle_line1": "1 66963U 25288E   25358.91670139 -.02042445  00000+0 -21189-1 0  9998",
        "tle_line2": "2 66963  43.0002  92.8659 0001292 271.9561 303.9558 15.67072127  3784"
      },
      "geometry": {
        "type": "Point",
        "coordinates": [
          -93.12621053881834,
          3.4821683728353428
        ]
      }
    },
    {
      "type": "Feature",
      "properties": {
        "norad_id": 66964,
        "name": "STARLINK-36104",
        "group": "last-30-days",
        "lat": 2.177615325251392,
        "lon": -91.72591931050039,
        "alt_km": 371.9558029157697,
        "timestamp": "2025-12-25T07:00:32.765981+00:00",
        "meta_object_name": "STARLINK-36104",
        "meta_object_id": "2025-288F",
        "meta_epoch": "2025-12-24T22:00:03.000096",
        "meta_mean_motion": 15.67071343,
        "meta_eccentricity": 0.00013763,
        "meta_inclination": 43.0004,
        "meta_ra_of_asc_node": 92.8607,
        "meta_arg_of_pericenter": 274.171,
        "meta_mean_anomaly": 303.6595,
        "meta_ephemeris_type": 0,
        "meta_classification_type": "U",
        "meta_norad_cat_id": 66964,
        "meta_element_set_no": 999,
        "meta_rev_at_epoch": 378,
        "meta_bstar": -0.021202094,
        "meta_mean_motion_dot": -0.020436,
        "meta_mean_motion_ddot": 0,
        "tle_line1": "1 66964U 25288F   25358.91670139 -.02043600  00000+0 -21202-1 0  9999",
        "tle_line2": "2 66964  43.0004  92.8607 0001376 274.1710 303.6595 15.67071343  3781"
      },
      "geometry": {
        "type": "Point",
        "coordinates": [
          -91.72591931050039,
          2.177615325251392
        ]
      }
    },
    {
      "type": "Feature",
      "properties": {
        "norad_id": 66965,
        "name": "STARLINK-36067",
        "group": "last-30-days",
        "lat": 0.8704266271499356,
        "lon": -90.3259785635027,
        "alt_km": 372.0837492926594,
        "timestamp": "2025-12-25T07:00:32.765991+00:00",
        "meta_object_name": "STARLINK-36067",
        "meta_object_id": "2025-288G",
        "meta_epoch": "2025-12-24T22:00:03.000096",
        "meta_mean_motion": 15.67070197,
        "meta_eccentricity": 0.00012638,
        "meta_inclination": 43.0003,
        "meta_ra_of_asc_node": 92.8562,
        "meta_arg_of_pericenter": 274.3295,
        "meta_mean_anomaly": 305.418,
        "meta_ephemeris_type": 0,
        "meta_classification_type": "U",
        "meta_norad_cat_id": 66965,
        "meta_element_set_no": 999,
        "meta_rev_at_epoch": 378,
        "meta_bstar": -0.021180367,
        "meta_mean_motion_dot": -0.0204159,
        "meta_mean_motion_ddot": 0,
        "tle_line1": "1 66965U 25288G   25358.91670139 -.02041590  00000+0 -21180-1 0  9991",
        "tle_line2": "2 66965  43.0003  92.8562 0001263 274.3295 305.4180 15.67070197  3782"
      },
      "geometry": {
        "type": "Point",
        "coordinates": [
          -90.3259785635027,
          0.8704266271499356
        ]
      }
    },
    {
      "type": "Feature",
      "properties": {
        "norad_id": 66966,
        "name": "STARLINK-36139",
        "group": "last-30-days",
        "lat": -0.4364364102870888,
        "lon": -88.92840104081638,
        "alt_km": 372.2075556696682,
        "timestamp": "2025-12-25T07:00:32.766004+00:00",
        "meta_object_name": "STARLINK-36139",
        "meta_object_id": "2025-288H",
        "meta_epoch": "2025-12-24T22:00:03.000096",
        "meta_mean_motion": 15.67068536,
        "meta_eccentricity": 0.00012951,
        "meta_inclination": 43.0006,
        "meta_ra_of_asc_node": 92.8512,
        "meta_arg_of_pericenter": 273.6967,
        "meta_mean_anomaly": 307.9695,
        "meta_ephemeris_type": 0,
        "meta_classification_type": "U",
        "meta_norad_cat_id": 66966,
        "meta_element_set_no": 999,
        "meta_rev_at_epoch": 378,
        "meta_bstar": -0.021165079,
        "meta_mean_motion_dot": -0.02040202,
        "meta_mean_motion_ddot": 0,
        "tle_line1": "1 66966U 25288H   25358.91670139 -.02040202  00000+0 -21165-1 0  9994",
        "tle_line2": "2 66966  43.0006  92.8512 0001295 273.6967 307.9695 15.67068536  3786"
      },
      "geometry": {
        "type": "Point",
        "coordinates": [
          -88.92840104081638,
          -0.4364364102870888
        ]
      }
    },
    {
      "type": "Feature",
      "properties": {
        "norad_id": 66967,
        "name": "STARLINK-36136",
        "group": "last-30-days",
        "lat": -1.7425866420923537,
        "lon": -87.53065240110442,
        "alt_km": 372.327948532411,
        "timestamp": "2025-12-25T07:00:32.766014+00:00",
        "meta_object_name": "STARLINK-36136",
        "meta_object_id": "2025-288J",
        "meta_epoch": "2025-12-24T22:00:03.000096",
        "meta_mean_motion": 15.67070369,
        "meta_eccentricity": 0.00013383,
        "meta_inclination": 43.0007,
        "meta_ra_of_asc_node": 92.8464,
        "meta_arg_of_pericenter": 273.2954,
        "meta_mean_anomaly": 310.2858,
        "meta_ephemeris_type": 0,
        "meta_classification_type": "U",
        "meta_norad_cat_id": 66967,
        "meta_element_set_no": 999,
        "meta_rev_at_epoch": 378,
        "meta_bstar": -0.021176226,
        "meta_mean_motion_dot": -0.02041313,
        "meta_mean_motion_ddot": 0,
        "tle_line1": "1 66967U 25288J   25358.91670139 -.02041313  00000+0 -21176-1 0  9991",
        "tle_line2": "2 66967  43.0007  92.8464 0001338 273.2954 310.2858 15.67070369  3789"
      },
      "geometry": {
        "type": "Point",
        "coordinates": [
          -87.53065240110442,
          -1.7425866420923537
        ]
      }
    }
  ]
}